start=new Date('2023-01-30T00:00:00.000Z').valueOf();
sats=[{"MEAN_MOTION_DOT":"0.00001359","PERIOD":"95.593","COUNTRY_CODE":"US","GP_ID":"223953909","ELEMENT_SET_NO":"999","MEAN_MOTION":"15.06393320","BSTAR":"0.00011014000000","EPHEMERIS_TYPE":"0","MEAN_ANOMALY":"269.3192","CLASSIFICATION_TYPE":"U","TLE_LINE1":"1 46140U 20057Z   23029.85125188  .00001359  00000-0  11014-3 0  9991","OBJECT_NAME":"STARLINK-1594","ECCENTRICITY":"0.00015220","MEAN_MOTION_DDOT":"0.0000000000000","RCS_SIZE":"LARGE","OBJECT_TYPE":"PAYLOAD","REF_FRAME":"TEME","INCLINATION":"53.0563","APOAPSIS":"548.288","RA_OF_ASC_NODE":"331.1019","CENTER_NAME":"EARTH","MEAN_ELEMENT_THEORY":"SGP4","TIME_SYSTEM":"UTC","FILE":"3765015","SITE":"AFETR","EPOCH":"2023-01-29T20:25:48.162432","NORAD_CAT_ID":"46140","LAUNCH_DATE":"2020-08-18","TLE_LINE2":"2 46140  53.0563 331.1019 0001522  90.7972 269.3192 15.06393320136847","OBJECT_ID":"2020-057Z","REV_AT_EPOCH":"13684","SEMIMAJOR_AXIS":"6925.369","PERIAPSIS":"546.180","ARG_OF_PERICENTER":"90.7972","DECAY_DATE":null},{"MEAN_MOTION_DOT":"0.00008471","PERIOD":"95.591","COUNTRY_CODE":"US","GP_ID":"223944731","ELEMENT_SET_NO":"999","MEAN_MOTION":"15.06415732","BSTAR":"0.00058667000000","CLASSIFICATION_TYPE":"U","MEAN_ANOMALY":"260.8361","EPHEMERIS_TYPE":"0","OBJECT_NAME":"STARLINK-1596","TLE_LINE1":"1 46141U 20057AA  23029.23200856  .00008471  00000-0  58667-3 0  9997","ECCENTRICITY":"0.00017870","MEAN_MOTION_DDOT":"0.0000000000000","RCS_SIZE":"LARGE","OBJECT_TYPE":"PAYLOAD","APOAPSIS":"548.403","REF_FRAME":"TEME","INCLINATION":"53.0555","CENTER_NAME":"EARTH","TIME_SYSTEM":"UTC","MEAN_ELEMENT_THEORY":"SGP4","RA_OF_ASC_NODE":"333.8764","FILE":"3765015","SITE":"AFETR","EPOCH":"2023-01-29T05:34:05.539584","LAUNCH_DATE":"2020-08-18","NORAD_CAT_ID":"46141","REV_AT_EPOCH":"13548","SEMIMAJOR_AXIS":"6925.300","OBJECT_ID":"2020-057AA","TLE_LINE2":"2 46141  53.0555 333.8764 0001787  99.2831 260.8361 15.06415732135481","PERIAPSIS":"545.928","ARG_OF_PERICENTER":"99.2831","DECAY_DATE":null},{"FILE":"3765015","SITE":"AFETR","MEAN_ELEMENT_THEORY":"SGP4","CENTER_NAME":"EARTH","TIME_SYSTEM":"UTC","RA_OF_ASC_NODE":"10.8329","APOAPSIS":"548.117","REF_FRAME":"TEME","INCLINATION":"53.0521","DECAY_DATE":null,"ARG_OF_PERICENTER":"95.2109","PERIAPSIS":"546.331","LAUNCH_DATE":"2020-08-18","NORAD_CAT_ID":"46142","REV_AT_EPOCH":"13502","SEMIMAJOR_AXIS":"6925.359","TLE_LINE2":"2 46142  53.0521  10.8329 0001290  95.2109 264.9027 15.06396593135024","OBJECT_ID":"2020-057AB","EPOCH":"2023-01-29T21:56:01.755744","BSTAR":"0.00005803400000","MEAN_MOTION":"15.06396593","GP_ID":"223953408","ELEMENT_SET_NO":"999","COUNTRY_CODE":"US","MEAN_MOTION_DOT":"0.00000583","PERIOD":"95.592","RCS_SIZE":"LARGE","OBJECT_TYPE":"PAYLOAD","MEAN_MOTION_DDOT":"0.0000000000000","ECCENTRICITY":"0.00012900","CLASSIFICATION_TYPE":"U","EPHEMERIS_TYPE":"0","MEAN_ANOMALY":"264.9027","OBJECT_NAME":"STARLINK-1597","TLE_LINE1":"1 46142U 20057AB  23029.91390921  .00000583  00000-0  58034-4 0  9991"},{"EPOCH":"2023-01-29T21:05:36.748320","NORAD_CAT_ID":"46144","LAUNCH_DATE":"2020-08-18","TLE_LINE2":"2 46144  53.0563 350.9808 0001390 102.5174 257.5971 15.06397034123559","OBJECT_ID":"2020-057AD","SEMIMAJOR_AXIS":"6925.358","REV_AT_EPOCH":"12355","ARG_OF_PERICENTER":"102.5174","PERIAPSIS":"546.260","DECAY_DATE":null,"INCLINATION":"53.0563","REF_FRAME":"TEME","APOAPSIS":"548.185","RA_OF_ASC_NODE":"350.9808","CENTER_NAME":"EARTH","TIME_SYSTEM":"UTC","MEAN_ELEMENT_THEORY":"SGP4","FILE":"3765015","SITE":"AFETR","EPHEMERIS_TYPE":"0","MEAN_ANOMALY":"257.5971","CLASSIFICATION_TYPE":"U","TLE_LINE1":"1 46144U 20057AD  23029.87889755  .00000600  00000-0  59173-4 0  9991","OBJECT_NAME":"STARLINK-1606","ECCENTRICITY":"0.00013900","MEAN_MOTION_DDOT":"0.0000000000000","RCS_SIZE":"LARGE","OBJECT_TYPE":"PAYLOAD","MEAN_MOTION_DOT":"0.00000600","PERIOD":"95.592","COUNTRY_CODE":"US","ELEMENT_SET_NO":"999","GP_ID":"223953657","BSTAR":"0.00005917300000","MEAN_MOTION":"15.06397034"},{"TLE_LINE2":"2 46146  53.0539  10.7769 0001523  94.0398 266.0765 15.06396239135030","OBJECT_ID":"2020-057AF","SEMIMAJOR_AXIS":"6925.360","REV_AT_EPOCH":"13503","NORAD_CAT_ID":"46146","LAUNCH_DATE":"2020-08-18","EPOCH":"2023-01-29T22:11:57.233472","DECAY_DATE":null,"PERIAPSIS":"546.170","ARG_OF_PERICENTER":"94.0398","INCLINATION":"53.0539","REF_FRAME":"TEME","APOAPSIS":"548.280","SITE":"AFETR","FILE":"3765015","RA_OF_ASC_NODE":"10.7769","TIME_SYSTEM":"UTC","CENTER_NAME":"EARTH","MEAN_ELEMENT_THEORY":"SGP4","ECCENTRICITY":"0.00015230","TLE_LINE1":"1 46146U 20057AF  23029.92496798  .00000671  00000-0  63967-4 0  9994","OBJECT_NAME":"STARLINK-1608","MEAN_ANOMALY":"266.0765","EPHEMERIS_TYPE":"0","CLASSIFICATION_TYPE":"U","OBJECT_TYPE":"PAYLOAD","RCS_SIZE":"LARGE","MEAN_MOTION_DDOT":"0.0000000000000","COUNTRY_CODE":"US","PERIOD":"95.592","MEAN_MOTION_DOT":"0.00000671","MEAN_MOTION":"15.06396239","BSTAR":"0.00006396700000","GP_ID":"223954409","ELEMENT_SET_NO":"999"},{"ECCENTRICITY":"0.00018000","MEAN_ANOMALY":"242.2884","EPHEMERIS_TYPE":"0","CLASSIFICATION_TYPE":"U","TLE_LINE1":"1 46147U 20057AG  23029.90653864 -.00001178  00000-0 -60223-4 0  9999","OBJECT_NAME":"STARLINK-1611","RCS_SIZE":"LARGE","OBJECT_TYPE":"PAYLOAD","MEAN_MOTION_DDOT":"0.0000000000000","COUNTRY_CODE":"US","MEAN_MOTION_DOT":"-0.00001178","PERIOD":"95.593","BSTAR":"-0.00006022300000","MEAN_MOTION":"15.06391521","ELEMENT_SET_NO":"999","GP_ID":"223954160","NORAD_CAT_ID":"46147","LAUNCH_DATE":"2020-08-18","TLE_LINE2":"2 46147  53.0554  10.8558 0001800 117.8287 242.2884 15.06391521136289","OBJECT_ID":"2020-057AG","REV_AT_EPOCH":"13628","SEMIMAJOR_AXIS":"6925.375","EPOCH":"2023-01-29T21:45:24.938496","DECAY_DATE":null,"PERIAPSIS":"545.993","ARG_OF_PERICENTER":"117.8287","REF_FRAME":"TEME","INCLINATION":"53.0554","APOAPSIS":"548.486","FILE":"3765015","SITE":"AFETR","RA_OF_ASC_NODE":"10.8558","TIME_SYSTEM":"UTC","CENTER_NAME":"EARTH","MEAN_ELEMENT_THEORY":"SGP4"},{"CLASSIFICATION_TYPE":"U","EPHEMERIS_TYPE":"0","MEAN_ANOMALY":"260.9359","OBJECT_NAME":"STARLINK-1616","TLE_LINE1":"1 46148U 20057AH  23029.91204582  .00008798  00000-0  60826-3 0  9991","ECCENTRICITY":"0.00013910","MEAN_MOTION_DDOT":"0.0000000000000","RCS_SIZE":"LARGE","OBJECT_TYPE":"PAYLOAD","MEAN_MOTION_DOT":"0.00008798","PERIOD":"95.590","COUNTRY_CODE":"US","ELEMENT_SET_NO":"999","GP_ID":"223952909","MEAN_MOTION":"15.06431957","BSTAR":"0.00060826000000","EPOCH":"2023-01-29T21:53:20.758848","LAUNCH_DATE":"2020-08-18","NORAD_CAT_ID":"46148","REV_AT_EPOCH":"13530","SEMIMAJOR_AXIS":"6925.251","TLE_LINE2":"2 46148  53.0526 350.8422 0001391  99.1787 260.9359 15.06431957135302","OBJECT_ID":"2020-057AH","PERIAPSIS":"546.152","ARG_OF_PERICENTER":"99.1787","DECAY_DATE":null,"APOAPSIS":"548.079","INCLINATION":"53.0526","REF_FRAME":"TEME","TIME_SYSTEM":"UTC","MEAN_ELEMENT_THEORY":"SGP4","CENTER_NAME":"EARTH","RA_OF_ASC_NODE":"350.8422","FILE":"3765015","SITE":"AFETR"},{"RA_OF_ASC_NODE":"350.7663","TIME_SYSTEM":"UTC","MEAN_ELEMENT_THEORY":"SGP4","CENTER_NAME":"EARTH","FILE":"3765015","SITE":"AFETR","REF_FRAME":"TEME","INCLINATION":"53.0538","APOAPSIS":"548.246","ARG_OF_PERICENTER":"85.5972","PERIAPSIS":"546.227","DECAY_DATE":null,"EPOCH":"2023-01-29T22:13:14.862144","NORAD_CAT_ID":"46149","LAUNCH_DATE":"2020-08-18","OBJECT_ID":"2020-057AJ","TLE_LINE2":"2 46149  53.0538 350.7663 0001458  85.5972 274.5184 15.06392535136587","SEMIMAJOR_AXIS":"6925.371","REV_AT_EPOCH":"13658","ELEMENT_SET_NO":"999","GP_ID":"223953159","BSTAR":"0.00004877900000","MEAN_MOTION":"15.06392535","MEAN_MOTION_DOT":"0.00000445","PERIOD":"95.593","COUNTRY_CODE":"US","MEAN_MOTION_DDOT":"0.0000000000000","RCS_SIZE":"LARGE","OBJECT_TYPE":"PAYLOAD","EPHEMERIS_TYPE":"0","MEAN_ANOMALY":"274.5184","CLASSIFICATION_TYPE":"U","TLE_LINE1":"1 46149U 20057AJ  23029.92586646  .00000445  00000-0  48779-4 0  9992","OBJECT_NAME":"STARLINK-1620","ECCENTRICITY":"0.00014580"},{"ECCENTRICITY":"0.00013010","EPHEMERIS_TYPE":"0","MEAN_ANOMALY":"264.5099","CLASSIFICATION_TYPE":"U","TLE_LINE1":"1 46150U 20057AK  23029.92128134  .00001041  00000-0  88808-4 0  9998","OBJECT_NAME":"STARLINK-1629","RCS_SIZE":"LARGE","OBJECT_TYPE":"PAYLOAD","MEAN_MOTION_DDOT":"0.0000000000000","COUNTRY_CODE":"US","MEAN_MOTION_DOT":"0.00001041","PERIOD":"95.592","BSTAR":"0.00008880800000","MEAN_MOTION":"15.06396060","GP_ID":"223953910","ELEMENT_SET_NO":"999","NORAD_CAT_ID":"46150","LAUNCH_DATE":"2020-08-18","TLE_LINE2":"2 46150  53.0528  10.8020 0001301  95.6038 264.5099 15.06396060135031","OBJECT_ID":"2020-057AK","REV_AT_EPOCH":"13503","SEMIMAJOR_AXIS":"6925.361","EPOCH":"2023-01-29T22:06:38.707776","DECAY_DATE":null,"PERIAPSIS":"546.325","ARG_OF_PERICENTER":"95.6038","REF_FRAME":"TEME","INCLINATION":"53.0528","APOAPSIS":"548.127","FILE":"3765015","SITE":"AFETR","RA_OF_ASC_NODE":"10.8020","CENTER_NAME":"EARTH","TIME_SYSTEM":"UTC","MEAN_ELEMENT_THEORY":"SGP4"},{"LAUNCH_DATE":"2020-08-18","NORAD_CAT_ID":"46151","REV_AT_EPOCH":"13530","SEMIMAJOR_AXIS":"6925.344","OBJECT_ID":"2020-057AL","TLE_LINE2":"2 46151  53.0559 350.8957 0001729 113.5169 246.6002 15.06401557135304","EPOCH":"2023-01-29T21:32:08.651040","DECAY_DATE":null,"PERIAPSIS":"546.011","ARG_OF_PERICENTER":"113.5169","APOAPSIS":"548.406","INCLINATION":"53.0559","REF_FRAME":"TEME","FILE":"3765015","SITE":"AFETR","MEAN_ELEMENT_THEORY":"SGP4","TIME_SYSTEM":"UTC","CENTER_NAME":"EARTH","RA_OF_ASC_NODE":"350.8957","ECCENTRICITY":"0.00017290","CLASSIFICATION_TYPE":"U","EPHEMERIS_TYPE":"0","MEAN_ANOMALY":"246.6002","OBJECT_NAME":"STARLINK-1631","TLE_LINE1":"1 46151U 20057AL  23029.89732235  .00001076  00000-0  91094-4 0  9997","RCS_SIZE":"LARGE","OBJECT_TYPE":"PAYLOAD","MEAN_MOTION_DDOT":"0.0000000000000","COUNTRY_CODE":"US","MEAN_MOTION_DOT":"0.00001076","PERIOD":"95.592","BSTAR":"0.00009109400000","MEAN_MOTION":"15.06401557","ELEMENT_SET_NO":"999","GP_ID":"223954659"}];
